[{"OBJECT_NAME":"ONEWEB-0564","OBJECT_ID":"2023-029F","EPOCH":"2026-06-16T07:14:58.403904","MEAN_MOTION":13.20771545,"ECCENTRICITY":0.000215,"INCLINATION":87.9185,"RA_OF_ASC_NODE":274.6301,"ARG_OF_PERICENTER":90.6015,"MEAN_ANOMALY":269.5364,"EPHEMERIS_TYPE":0,"CLASSIFICATION_TYPE":"U","NORAD_CAT_ID":55801,"ELEMENT_SET_NO":999,"REV_AT_EPOCH":16103,"BSTAR":0.00023118,"MEAN_MOTION_DOT":1.07e-06,"MEAN_MOTION_DDOT":0.0},{"OBJECT_NAME":"ONEWEB-0638","OBJECT_ID":"2023-029G","EPOCH":"2026-06-16T06:01:53.923584","MEAN_MOTION":13.1450346,"ECCENTRICITY":0.0001834,"INCLINATION":87.8953,"RA_OF_ASC_NODE":289.9383,"ARG_OF_PERICENTER":82.1504,"MEAN_ANOMALY":277.9834,"EPHEMERIS_TYPE":0,"CLASSIFICATION_TYPE":"U","NORAD_CAT_ID":55802,"ELEMENT_SET_NO":999,"REV_AT_EPOCH":15927,"BSTAR":0.00040641,"MEAN_MOTION_DOT":1.63e-06,"MEAN_MOTION_DDOT":0.0},{"OBJECT_NAME":"ONEWEB-0639","OBJECT_ID":"2023-029H","EPOCH":"2026-06-16T02:55:50.890656","MEAN_MOTION":13.19725214,"ECCENTRICITY":0.0001248,"INCLINATION":87.9169,"RA_OF_ASC_NODE":305.1881,"ARG_OF_PERICENTER":127.8639,"MEAN_ANOMALY":232.2607,"EPHEMERIS_TYPE":0,"CLASSIFICATION_TYPE":"U","NORAD_CAT_ID":55803,"ELEMENT_SET_NO":999,"REV_AT_EPOCH":15876,"BSTAR":-1.3271e-05,"MEAN_MOTION_DOT":8e-08,"MEAN_MOTION_DDOT":0.0},{"OBJECT_NAME":"ONEWEB-0640","OBJECT_ID":"2023-029J","EPOCH":"2026-06-16T02:36:21.655008","MEAN_MOTION":13.14502411,"ECCENTRICITY":0.0001388,"INCLINATION":87.8955,"RA_OF_ASC_NODE":289.9577,"ARG_OF_PERICENTER":82.9828,"MEAN_ANOMALY":277.1459,"EPHEMERIS_TYPE":0,"CLASSIFICATION_TYPE":"U","NORAD_CAT_ID":55804,"ELEMENT_SET_NO":999,"REV_AT_EPOCH":15927,"BSTAR":0.00038848,"MEAN_MOTION_DOT":1.57e-06,"MEAN_MOTION_DDOT":0.0},{"OBJECT_NAME":"ONEWEB-0641","OBJECT_ID":"2023-029K","EPOCH":"2026-06-16T02:49:00.862176","MEAN_MOTION":13.1972462,"ECCENTRICITY":0.0001779,"INCLINATION":87.9176,"RA_OF_ASC_NODE":305.1782,"ARG_OF_PERICENTER":103.4132,"MEAN_ANOMALY":256.72,"EPHEMERIS_TYPE":0,"CLASSIFICATION_TYPE":"U","NORAD_CAT_ID":55805,"ELEMENT_SET_NO":999,"REV_AT_EPOCH":15877,"BSTAR":-5.3765e-05,"MEAN_MOTION_DOT":-9e-08,"MEAN_MOTION_DDOT":0.0},{"OBJECT_NAME":"ONEWEB-0642","OBJECT_ID":"2023-029L","EPOCH":"2026-06-16T02:42:12.089088","MEAN_MOTION":13.19724171,"ECCENTRICITY":0.0001554,"INCLINATION":87.9169,"RA_OF_ASC_NODE":305.191,"ARG_OF_PERICENTER":125.4311,"MEAN_ANOMALY":234.6967,"EPHEMERIS_TYPE":0,"CLASSIFICATION_TYPE":"U","NORAD_CAT_ID":55806,"ELEMENT_SET_NO":999,"REV_AT_EPOCH":15876,"BSTAR":-0.00012062000000000001,"MEAN_MOTION_DOT":-3.5e-07,"MEAN_MOTION_DDOT":0.0},{"OBJECT_NAME":"ONEWEB-0643","OBJECT_ID":"2023-029M","EPOCH":"2026-06-16T07:21:48.472128","MEAN_MOTION":13.14503721,"ECCENTRICITY":0.0001875,"INCLINATION":87.8954,"RA_OF_ASC_NODE":289.9054,"ARG_OF_PERICENTER":121.7799,"MEAN_ANOMALY":238.3514,"EPHEMERIS_TYPE":0,"CLASSIFICATION_TYPE":"U","NORAD_CAT_ID":55807,"ELEMENT_SET_NO":999,"REV_AT_EPOCH":15927,"BSTAR":2.1748000000000003e-05,"MEAN_MOTION_DOT":2.1e-07,"MEAN_MOTION_DDOT":0.0},{"OBJECT_NAME":"ONEWEB-0644","OBJECT_ID":"2023-029N","EPOCH":"2026-06-16T02:35:22.156512","MEAN_MOTION":13.19724203,"ECCENTRICITY":0.0001717,"INCLINATION":87.9167,"RA_OF_ASC_NODE":305.1934,"ARG_OF_PERICENTER":109.3169,"MEAN_ANOMALY":250.815,"EPHEMERIS_TYPE":0,"CLASSIFICATION_TYPE":"U","NORAD_CAT_ID":55808,"ELEMENT_SET_NO":999,"REV_AT_EPOCH":15876,"BSTAR":-6.603099999999999e-05,"MEAN_MOTION_DOT":-1.3e-07,"MEAN_MOTION_DDOT":0.0},{"OBJECT_NAME":"ONEWEB-0645","OBJECT_ID":"2023-029P","EPOCH":"2026-06-16T03:07:12.504576","MEAN_MOTION":13.19724483,"ECCENTRICITY":0.00014,"INCLINATION":87.9167,"RA_OF_ASC_NODE":305.1859,"ARG_OF_PERICENTER":99.9589,"MEAN_ANOMALY":260.1702,"EPHEMERIS_TYPE":0,"CLASSIFICATION_TYPE":"U","NORAD_CAT_ID":55809,"ELEMENT_SET_NO":999,"REV_AT_EPOCH":15876,"BSTAR":2.1555e-05,"MEAN_MOTION_DOT":2.2e-07,"MEAN_MOTION_DDOT":0.0},{"OBJECT_NAME":"ONEWEB-0646","OBJECT_ID":"2023-029Q","EPOCH":"2026-06-16T07:10:35.785920","MEAN_MOTION":13.19725274,"ECCENTRICITY":0.0001734,"INCLINATION":87.9166,"RA_OF_ASC_NODE":305.1524,"ARG_OF_PERICENTER":107.6509,"MEAN_ANOMALY":252.4813,"EPHEMERIS_TYPE":0,"CLASSIFICATION_TYPE":"U","NORAD_CAT_ID":55810,"ELEMENT_SET_NO":999,"REV_AT_EPOCH":15877,"BSTAR":4.4626e-05,"MEAN_MOTION_DOT":3.1e-07,"MEAN_MOTION_DDOT":0.0},{"OBJECT_NAME":"ONEWEB-0648","OBJECT_ID":"2023-029R","EPOCH":"2026-06-16T06:36:06.646752","MEAN_MOTION":13.14500762,"ECCENTRICITY":0.0001082,"INCLINATION":87.8967,"RA_OF_ASC_NODE":289.8851,"ARG_OF_PERICENTER":119.3539,"MEAN_ANOMALY":240.7699,"EPHEMERIS_TYPE":0,"CLASSIFICATION_TYPE":"U","NORAD_CAT_ID":55811,"ELEMENT_SET_NO":999,"REV_AT_EPOCH":15927,"BSTAR":-6.897400000000001e-05,"MEAN_MOTION_DOT":-1.3e-07,"MEAN_MOTION_DDOT":0.0},{"OBJECT_NAME":"ONEWEB-0649","OBJECT_ID":"2023-029S","EPOCH":"2026-06-16T07:46:58.440000","MEAN_MOTION":13.19725712,"ECCENTRICITY":0.0001615,"INCLINATION":87.9169,"RA_OF_ASC_NODE":305.1449,"ARG_OF_PERICENTER":101.4533,"MEAN_ANOMALY":258.6781,"EPHEMERIS_TYPE":0,"CLASSIFICATION_TYPE":"U","NORAD_CAT_ID":55812,"ELEMENT_SET_NO":999,"REV_AT_EPOCH":15881,"BSTAR":0.00022396,"MEAN_MOTION_DOT":1.03e-06,"MEAN_MOTION_DDOT":0.0},{"OBJECT_NAME":"ONEWEB-0650","OBJECT_ID":"2023-029T","EPOCH":"2026-06-16T07:40:08.101344","MEAN_MOTION":13.1972541,"ECCENTRICITY":0.0001564,"INCLINATION":87.9167,"RA_OF_ASC_NODE":305.1484,"ARG_OF_PERICENTER":115.2611,"MEAN_ANOMALY":244.8684,"EPHEMERIS_TYPE":0,"CLASSIFICATION_TYPE":"U","NORAD_CAT_ID":55813,"ELEMENT_SET_NO":999,"REV_AT_EPOCH":15878,"BSTAR":0.00011491999999999999,"MEAN_MOTION_DOT":5.9e-07,"MEAN_MOTION_DDOT":0.0},{"OBJECT_NAME":"ONEWEB-0652","OBJECT_ID":"2023-029U","EPOCH":"2026-06-16T06:08:42.200736","MEAN_MOTION":13.14504845,"ECCENTRICITY":0.000203,"INCLINATION":87.8962,"RA_OF_ASC_NODE":289.8963,"ARG_OF_PERICENTER":98.7551,"MEAN_ANOMALY":261.3809,"EPHEMERIS_TYPE":0,"CLASSIFICATION_TYPE":"U","NORAD_CAT_ID":55814,"ELEMENT_SET_NO":999,"REV_AT_EPOCH":15924,"BSTAR":0.00069596,"MEAN_MOTION_DOT":2.71e-06,"MEAN_MOTION_DDOT":0.0},{"OBJECT_NAME":"ONEWEB-0653","OBJECT_ID":"2023-029V","EPOCH":"2026-06-16T07:35:29.591808","MEAN_MOTION":13.14503271,"ECCENTRICITY":0.0001884,"INCLINATION":87.8961,"RA_OF_ASC_NODE":289.8821,"ARG_OF_PERICENTER":97.9851,"MEAN_ANOMALY":262.1493,"EPHEMERIS_TYPE":0,"CLASSIFICATION_TYPE":"U","NORAD_CAT_ID":55815,"ELEMENT_SET_NO":999,"REV_AT_EPOCH":15928,"BSTAR":0.00024243000000000002,"MEAN_MOTION_DOT":1.03e-06,"MEAN_MOTION_DDOT":0.0},{"OBJECT_NAME":"ONEWEB-0654","OBJECT_ID":"2023-029W","EPOCH":"2026-06-16T07:28:38.487648","MEAN_MOTION":13.14504344,"ECCENTRICITY":0.0002127,"INCLINATION":87.8963,"RA_OF_ASC_NODE":289.8794,"ARG_OF_PERICENTER":92.3633,"MEAN_ANOMALY":267.7741,"EPHEMERIS_TYPE":0,"CLASSIFICATION_TYPE":"U","NORAD_CAT_ID":55816,"ELEMENT_SET_NO":999,"REV_AT_EPOCH":15930,"BSTAR":0.00029444,"MEAN_MOTION_DOT":1.22e-06,"MEAN_MOTION_DDOT":0.0}]