ONEWEB-0564             
1 55801U 23029F   26167.30206486  .00000107  00000+0  23118-3 0  9991
2 55801  87.9185 274.6301 0002150  90.6015 269.5364 13.20771545161032
ONEWEB-0638             
1 55802U 23029G   26167.25131856  .00000163  00000+0  40641-3 0  9996
2 55802  87.8953 289.9383 0001834  82.1504 277.9834 13.14503460159271
ONEWEB-0639             
1 55803U 23029H   26167.12211679  .00000008  00000+0 -13271-4 0  9994
2 55803  87.9169 305.1881 0001248 127.8639 232.2607 13.19725214158764
ONEWEB-0640             
1 55804U 23029J   26167.10858397  .00000157  00000+0  38848-3 0  9997
2 55804  87.8955 289.9577 0001388  82.9828 277.1459 13.14502411159271
ONEWEB-0641             
1 55805U 23029K   26167.11737109 -.00000009  00000+0 -53765-4 0  9990
2 55805  87.9176 305.1782 0001779 103.4132 256.7200 13.19724620158772
ONEWEB-0642             
1 55806U 23029L   26167.11263992 -.00000035  00000+0 -12062-3 0  9998
2 55806  87.9169 305.1910 0001554 125.4311 234.6967 13.19724171158767
ONEWEB-0643             
1 55807U 23029M   26167.30681102  .00000021  00000+0  21748-4 0  9992
2 55807  87.8954 289.9054 0001875 121.7799 238.3514 13.14503721159279
ONEWEB-0644             
1 55808U 23029N   26167.10789533 -.00000013  00000+0 -66031-4 0  9995
2 55808  87.9167 305.1934 0001717 109.3169 250.8150 13.19724203158766
ONEWEB-0645             
1 55809U 23029P   26167.13000584  .00000022  00000+0  21555-4 0  9991
2 55809  87.9167 305.1859 0001400  99.9589 260.1702 13.19724483158769
ONEWEB-0646             
1 55810U 23029Q   26167.29902530  .00000031  00000+0  44626-4 0  9996
2 55810  87.9166 305.1524 0001734 107.6509 252.4813 13.19725274158775
ONEWEB-0648             
1 55811U 23029R   26167.27507693 -.00000013  00000+0 -68974-4 0  9990
2 55811  87.8967 289.8851 0001082 119.3539 240.7699 13.14500762159270
ONEWEB-0649             
1 55812U 23029S   26167.32428750  .00000103  00000+0  22396-3 0  9998
2 55812  87.9169 305.1449 0001615 101.4533 258.6781 13.19725712158817
ONEWEB-0650             
1 55813U 23029T   26167.31953821  .00000059  00000+0  11492-3 0  9995
2 55813  87.9167 305.1484 0001564 115.2611 244.8684 13.19725410158788
ONEWEB-0652             
1 55814U 23029U   26167.25604399  .00000271  00000+0  69596-3 0  9996
2 55814  87.8962 289.8963 0002030  98.7551 261.3809 13.14504845159245
ONEWEB-0653             
1 55815U 23029V   26167.31631472  .00000103  00000+0  24243-3 0  9990
2 55815  87.8961 289.8821 0001884  97.9851 262.1493 13.14503271159282
ONEWEB-0654             
1 55816U 23029W   26167.31155657  .00000122  00000+0  29444-3 0  9996
2 55816  87.8963 289.8794 0002127  92.3633 267.7741 13.14504344159304
